[{"OBJECT_NAME":"STARLINK-3058","OBJECT_ID":"2021-082J","EPOCH":"2026-03-09T21:56:31.840224","MEAN_MOTION":14.98327791,"ECCENTRICITY":0.00020205,"INCLINATION":69.9986,"RA_OF_ASC_NODE":293.8975,"ARG_OF_PERICENTER":250.3449,"MEAN_ANOMALY":109.7493,"EPHEMERIS_TYPE":0,"CLASSIFICATION_TYPE":"U","NORAD_CAT_ID":49138,"ELEMENT_SET_NO":999,"REV_AT_EPOCH":24601,"BSTAR":5.8290098e-5,"MEAN_MOTION_DOT":6.03e-6,"MEAN_MOTION_DDOT":0},{"OBJECT_NAME":"TIANPING 2A","OBJECT_ID":"2022-032A","EPOCH":"2026-03-09T22:58:37.953408","MEAN_MOTION":14.9690979,"ECCENTRICITY":0.00109299,"INCLINATION":97.5994,"RA_OF_ASC_NODE":109.5163,"ARG_OF_PERICENTER":146.1091,"MEAN_ANOMALY":214.0831,"EPHEMERIS_TYPE":0,"CLASSIFICATION_TYPE":"U","NORAD_CAT_ID":52153,"ELEMENT_SET_NO":999,"REV_AT_EPOCH":21499,"BSTAR":3.4221979e-5,"MEAN_MOTION_DOT":3.37e-6,"MEAN_MOTION_DDOT":0}]
